0 OSCAR 23
1 19070U 88033A   13282.13211424  .00000078  00000-0  14517-3 0  7638
2 19070 090.3216 228.3679 0188005 304.6994 183.2296 13.27254925232732
0 OSCAR 23
1 19070U 88033A   13283.47606411  .00000027  00000-0  43150-4 0  7641
2 19070 090.3218 228.4098 0187944 300.9343 124.8068 13.27255616232914
0 OSCAR 23
1 19070U 88033A   13286.12764726  .00000045  00000-0  78985-4 0  7666
2 19070 090.3224 228.4925 0187836 293.4983 194.4533 13.27255224233260
0 OSCAR 23
1 19070U 88033A   13287.47180954 -.00000009  00000-0 -30153-4 0  7678
2 19070 090.3227 228.5344 0187811 289.7260 137.0533 13.27255715233446
0 OSCAR 23
1 19070U 88033A   13288.82527258  .00000070  00000-0  13003-3 0  7681
2 19070 090.3230 228.5767 0187806 285.9261 124.1038 13.27255280233626
0 OSCAR 23
1 19070U 88033A   13290.12315450  .00000112  00000-0  21483-3 0  7695
2 19070 090.3232 228.6174 0187762 282.2859 205.5734 13.27255338233794
0 OSCAR 23
1 19070U 88033A   13291.17497470  .00000074  00000-0  13741-3 0  7701
2 19070 090.3233 228.6504 0187757 279.3330 191.3229 13.27256017233939
0 OSCAR 23
1 19070U 88033A   13292.46206147  .00000062  00000-0  11431-3 0  7715
2 19070 090.3234 228.6908 0187741 275.7222 221.2126 13.27256151234109
0 OSCAR 23
1 19070U 88033A   13293.49945096  .00000107  00000-0  20475-3 0  7721
2 19070 090.3234 228.7234 0187764 272.8086 138.0189 13.27255735234249
0 OSCAR 23
1 19070U 88033A   13294.85825005  .00000071  00000-0  13094-3 0  7739
2 19070 090.3234 228.7662 0187781 268.9957 150.5592 13.27256030234422
0 OSCAR 23
1 19070U 88033A   13296.00416883  .00000013  00000-0  13918-4 0  7741
2 19070 090.3235 228.8022 0187779 265.7801 225.9262 13.27256736234574
